{
  "norad_id": 42828,
  "name": "NORSAT 2",
  "history": [
    {
      "epoch": "2026-03-28T10:35:43.151424Z",
      "apogee_km": 511.64833231707325,
      "perigee_km": 498.9816792740885,
      "latitude_deg": 3.5420146872040134e-05,
      "longitude_deg": -82.51117224604619,
      "height_km": 502.46953051100394,
      "semi_major_axis_km": 6883.452005795581,
      "eccentricity": 0.00092008,
      "inclination_deg": 97.3994,
      "raan_deg": 262.2805,
      "arg_perigee_deg": 339.6737,
      "mean_anomaly_deg": 20.4131,
      "mean_motion_rev_day": 15.201741
    },
    {
      "epoch": "2026-03-29T00:48:47.513664Z",
      "apogee_km": 511.5744833377403,
      "perigee_km": 498.9448271546944,
      "latitude_deg": -6.0985924725617267e-05,
      "longitude_deg": 64.21815648666183,
      "height_km": 502.5194437356197,
      "semi_major_axis_km": 6883.396655246217,
      "eccentricity": 0.0009174,
      "inclination_deg": 97.3993,
      "raan_deg": 262.8619,
      "arg_perigee_deg": 337.4982,
      "mean_anomaly_deg": 22.5849,
      "mean_motion_rev_day": 15.20192436
    }
  ]
}